NORAD_CAT_ID,OBJECT_NAME,OBJECT_TYPE,EPOCH,MEAN_MOTION,ECCENTRICITY,INCLINATION,RA_OF_ASC_NODE,ARG_OF_PERICENTER,MEAN_ANOMALY,BSTAR,MEAN_MOTION_DOT,MEAN_MOTION_DDOT,TLE_LINE0,TLE_LINE1,TLE_LINE2,SEMIMAJOR_AXIS,PERIOD,APOGEE,PERIGEE,DECAYED
53260.0,STARLINK-4136,PAYLOAD,2023-05-24 02:57:14,15.0884015,0.0001092,53.2172,95.6199,93.4731,266.6386,0.00023701,3.486e-05,0.0,0 STARLINK-4136,1 53260U 22086U   23144.12307997  .00003486  00000-0  23701-3 0  9993,2 53260  53.2172  95.6199 0001092  93.4731 266.6386 15.08840150 46814,6917.88,95.438,540.5,538.989,0.0
53260.0,STARLINK-4136,PAYLOAD,2023-05-24 04:32:37,15.08844191,0.0001139,53.2173,95.3227,96.4439,263.6683,0.00028267,4.214e-05,0.0,0 STARLINK-4136,1 53260U 22086U   23144.18931802  .00004214  00000-0  28267-3 0  9999,2 53260  53.2173  95.3227 0001139  96.4439 263.6683 15.08844191 47002,6917.868,95.437,540.521,538.945,0.0
53260.0,STARLINK-4136,PAYLOAD,2023-05-25 20:17:16,15.08804277,0.0001586,53.2191,87.8895,99.394,260.7231,0.00056712,8.74e-05,0.0,0 STARLINK-4136,1 53260U 22086U   23145.84532675  .00008740  00000-0  56712-3 0  9992,2 53260  53.2191  87.8895 0001586  99.3940 260.7231 15.08804277 47259,6917.99,95.44,540.952,538.757,0.0
53260.0,STARLINK-4136,PAYLOAD,2023-05-26 02:38:48,15.08852296,0.0001273,53.2183,86.7019,87.3568,272.757,4.8418e-06,-2.11e-06,0.0,0 STARLINK-4136,1 53260U 22086U   23146.11027905 -.00000211  00000-0  48418-5 0  9990,2 53260  53.2183  86.7019 0001273  87.3568 272.7570 15.08852296 47110,6917.843,95.437,540.588,538.827,0.0
53260.0,STARLINK-4136,PAYLOAD,2023-05-26 05:49:34,15.08856621,0.0001341,53.2182,86.1063,88.7528,271.3618,-2.3705e-05,-6.65e-06,0.0,0 STARLINK-4136,1 53260U 22086U   23146.24275603 -.00000665  00000-0 -23705-4 0  9999,2 53260  53.2182  86.1063 0001341  88.7528 271.3618 15.08856621 47315,6917.83,95.437,540.622,538.767,0.0
53260.0,STARLINK-4136,PAYLOAD,2023-05-26 20:08:03,15.08827428,0.0001175,53.2174,83.4283,102.6969,257.4155,0.0001519,2.13e-05,0.0,0 STARLINK-4136,1 53260U 22086U   23146.83892719  .00002130  00000-0  15190-3 0  9992,2 53260  53.2174  83.4283 0001175 102.6969 257.4155 15.08827428 47404,6917.919,95.438,540.597,538.971,0.0
53260.0,STARLINK-4136,PAYLOAD,2023-05-27 02:29:35,15.08837145,0.0001251,53.2175,82.2383,90.932,269.1815,6.6373e-05,7.69e-06,0.0,0 STARLINK-4136,1 53260U 22086U   23147.10388589  .00000769  00000-0  66373-4 0  9994,2 53260  53.2175  82.2383 0001251  90.9320 269.1815 15.08837145 47262,6917.889,95.438,540.62,538.889,0.0
53260.0,STARLINK-4136,PAYLOAD,2023-05-28 02:20:22,15.088445,0.0001125,53.2178,77.7794,92.2516,267.8605,2.5447e-05,1.17e-06,0.0,0 STARLINK-4136,1 53260U 22086U   23148.09748378  .00000117  00000-0  25447-4 0  9993,2 53260  53.2178  77.7794 0001125  92.2516 267.8605 15.08844500 47593,6917.867,95.437,540.51,538.953,0.0
53260.0,STARLINK-4136,PAYLOAD,2023-05-29 03:46:33,15.08839935,0.0001177,53.218,73.0244,95.3476,264.765,0.0001045,1.376e-05,0.0,0 STARLINK-4136,1 53260U 22086U   23149.15732660  .00001376  00000-0  10450-3 0  9993,2 53260  53.2180  73.0244 0001177  95.3476 264.7650 15.08839935 47571,6917.881,95.438,540.56,538.931,0.0
53260.0,STARLINK-4136,PAYLOAD,2023-05-29 05:21:55,15.08842669,0.0001141,53.2176,72.726,92.7223,267.3899,0.00012149,1.646e-05,0.0,0 STARLINK-4136,1 53260U 22086U   23149.22356435  .00001646  00000-0  12149-3 0  9990,2 53260  53.2176  72.7260 0001141  92.7223 267.3899 15.08842669 47765,6917.872,95.437,540.527,538.948,0.0
53260.0,STARLINK-4136,PAYLOAD,2023-05-30 00:26:34,15.08833485,0.0001326,53.2178,69.1572,114.9113,245.2017,-1.523e-05,-5.3e-06,0.0,0 STARLINK-4136,1 53260U 22086U   23150.01845593 -.00000530  00000-0 -15230-4 0  9995,2 53260  53.2178  69.1572 0001326 114.9113 245.2017 15.08833485 47700,6917.9,95.438,540.683,538.848,0.0
53260.0,STARLINK-4136,PAYLOAD,2023-05-30 03:37:20,15.08834849,0.000124,53.218,68.5609,77.8167,282.2964,-1.039e-05,-4.53e-06,0.0,0 STARLINK-4136,1 53260U 22086U   23150.15093687 -.00000453  00000-0 -10390-4 0  9995,2 53260  53.2180  68.5609 0001240  77.8167 282.2964 15.08834849 47907,6917.896,95.438,540.619,538.903,0.0
53260.0,STARLINK-4136,PAYLOAD,2023-05-30 22:41:57,15.08845159,0.0001045,53.2174,64.9904,77.2534,282.8575,4.9084e-05,4.94e-06,0.0,0 STARLINK-4136,1 53260U 22086U   23150.94580932  .00000494  00000-0  49084-4 0  9991,2 53260  53.2174  64.9904 0001045  77.2534 282.8575 15.08845159 48027,6917.865,95.437,540.453,539.007,0.0
53260.0,STARLINK-4136,PAYLOAD,2023-05-31 01:52:43,15.08857358,0.0001082,53.2174,64.399,94.1862,265.9254,0.00017764,2.542e-05,0.0,0 STARLINK-4136,1 53260U 22086U   23151.07827773  .00002542  00000-0  17764-3 0  9998,2 53260  53.2174  64.3990 0001082  94.1862 265.9254 15.08857358 47860,6917.827,95.436,540.441,538.944,0.0
53260.0,STARLINK-4136,PAYLOAD,2023-05-31 17:46:35,15.08836491,0.0001118,53.2176,61.4257,91.1444,268.9676,0.00012417,1.689e-05,0.0,0 STARLINK-4136,1 53260U 22086U   23151.74069267  .00001689  00000-0  12417-3 0  9999,2 53260  53.2176  61.4257 0001118  91.1444 268.9676 15.08836491 47966,6917.891,95.438,540.53,538.983,0.0
53260.0,STARLINK-4136,PAYLOAD,2023-05-31 20:57:22,15.08838786,0.0001115,53.2183,60.8316,97.1993,262.9126,9.0093e-05,1.146e-05,0.0,0 STARLINK-4136,1 53260U 22086U   23151.87317244  .00001146  00000-0  90093-4 0  9999,2 53260  53.2183  60.8316 0001115  97.1993 262.9126 15.08838786 48161,6917.884,95.438,540.52,538.978,0.0
53260.0,STARLINK-4136,PAYLOAD,2023-06-01 00:08:08,15.08837884,0.0001212,53.2185,60.2368,85.7485,274.3645,9.9574e-05,1.297e-05,0.0,0 STARLINK-4136,1 53260U 22086U   23152.00565358  .00001297  00000-0  99574-4 0  9996,2 53260  53.2185  60.2368 0001212  85.7485 274.3645 15.08837884 48184,6917.887,95.438,540.59,538.913,0.0
53260.0,STARLINK-4136,PAYLOAD,2023-06-01 23:58:55,15.08849926,0.0001193,53.2179,55.7766,96.2229,263.8899,-5.373e-05,-1.143e-05,0.0,0 STARLINK-4136,1 53260U 22086U   23152.99925054 -.00001143  00000-0 -53730-4 0  9993,2 53260  53.2179  55.7766 0001193  96.2229 263.8899 15.08849926 48150,6917.85,95.437,540.54,538.89,0.0
53260.0,STARLINK-4136,PAYLOAD,2023-06-02 03:09:41,15.08854441,0.0001274,53.2179,55.1813,111.0197,249.0931,-5.3877e-05,-1.146e-05,0.0,0 STARLINK-4136,1 53260U 22086U   23153.13172637 -.00001146  00000-0 -53877-4 0  9996,2 53260  53.2179  55.1813 0001274 111.0197 249.0931 15.08854441 48350,6917.836,95.437,540.583,538.82,0.0
53260.0,STARLINK-4136,PAYLOAD,2023-06-02 22:14:19,15.08834705,0.0001424,53.2179,51.6108,109.8713,250.2433,6.1889e-06,-1.89e-06,0.0,0 STARLINK-4136,1 53260U 22086U   23153.92661876 -.00000189  00000-0  61889-5 0  9999,2 53260  53.2179  51.6108 0001424 109.8713 250.2433 15.08834705 48479,6917.897,95.438,540.747,538.776,0.0
53260.0,STARLINK-4136,PAYLOAD,2023-06-02 23:49:42,15.08836446,0.0001373,53.2181,51.3142,94.2084,265.9065,1.7061e-05,-1.6e-07,0.0,0 STARLINK-4136,1 53260U 22086U   23153.99285848 -.00000016  00000-0  17061-4 0  9998,2 53260  53.2181  51.3142 0001373  94.2084 265.9065 15.08836446 48308,6917.891,95.438,540.706,538.806,0.0
53260.0,STARLINK-4136,PAYLOAD,2023-06-03 03:00:29,15.08838479,0.0001257,53.218,50.7215,87.6425,272.4711,6.9532e-05,8.19e-06,0.0,0 STARLINK-4136,1 53260U 22086U   23154.12533612  .00000819  00000-0  69532-4 0  9999,2 53260  53.2180  50.7215 0001257  87.6425 272.4711 15.08838479 48508,6917.885,95.438,540.62,538.88,0.0
53260.0,STARLINK-4136,PAYLOAD,2023-06-03 20:29:43,15.08841838,0.0001355,53.2183,47.4492,84.1897,275.925,2.2254e-05,6.6e-07,0.0,0 STARLINK-4136,1 53260U 22086U   23154.85397731  .00000066  00000-0  22254-4 0  9993,2 53260  53.2183  47.4492 0001355  84.1897 275.9250 15.08841838 48616,6917.875,95.437,540.677,538.802,0.0
53260.0,STARLINK-4136,PAYLOAD,2023-06-03 23:40:29,15.08845724,0.000131,53.2179,46.8546,90.0568,270.0574,7.4797e-05,9.03e-06,0.0,0 STARLINK-4136,1 53260U 22086U   23154.98645296  .00000903  00000-0  74797-4 0  9998,2 53260  53.2179  46.8546 0001310  90.0568 270.0574 15.08845724 48451,6917.863,95.437,540.634,538.822,0.0
53260.0,STARLINK-4136,PAYLOAD,2023-06-04 02:51:15,15.0884564,0.0001292,53.2179,46.2599,92.1344,267.9796,9.479e-05,1.221e-05,0.0,0 STARLINK-4136,1 53260U 22086U   23155.11893233  .00001221  00000-0  94790-4 0  9999,2 53260  53.2179  46.2599 0001292  92.1344 267.9796 15.08845640 48657,6917.863,95.437,540.622,538.834,0.0
53260.0,STARLINK-4136,PAYLOAD,2023-06-04 15:34:21,15.08834201,0.0001331,53.2173,43.881,93.6267,266.4877,7.6529e-05,9.3e-06,0.0,0 STARLINK-4136,1 53260U 22086U   23155.64886048  .00000930  00000-0  76529-4 0  9999,2 53260  53.2173  43.8810 0001331  93.6267 266.4877 15.08834201 48558,6917.898,95.438,540.684,538.842,0.0
53260.0,STARLINK-4136,PAYLOAD,2023-06-04 20:20:30,15.08839515,0.0001298,53.2174,42.9889,90.9703,269.1438,3.1402e-05,2.12e-06,0.0,0 STARLINK-4136,1 53260U 22086U   23155.84757918  .00000212  00000-0  31402-4 0  9998,2 53260  53.2174  42.9889 0001298  90.9703 269.1438 15.08839515 48761,6917.882,95.438,540.645,538.849,0.0
53260.0,STARLINK-4136,PAYLOAD,2023-06-05 02:42:02,15.08846861,0.0001266,53.2178,41.8005,85.3624,274.7512,0.00011443,1.534e-05,0.0,0 STARLINK-4136,1 53260U 22086U   23156.11253189  .00001534  00000-0  11443-3 0  9990,2 53260  53.2178  41.8005 0001266  85.3624 274.7512 15.08846861 48620,6917.859,95.437,540.6,538.849,0.0
53260.0,STARLINK-4136,PAYLOAD,2023-06-05 20:11:18,15.0883753,0.0001245,53.2177,38.5291,86.8618,273.2517,-5.3687e-05,-1.142e-05,0.0,0 STARLINK-4136,1 53260U 22086U   23156.84118319 -.00001142  00000-0 -53687-4 0  9999,2 53260  53.2177  38.5291 0001245  86.8618 273.2517 15.08837530 48919,6917.888,95.438,540.614,538.892,0.0
53260.0,STARLINK-4136,PAYLOAD,2023-06-06 00:57:27,15.08841054,0.0001321,53.2175,37.6362,93.8829,266.2314,-1.1446e-06,-3.06e-06,0.0,0 STARLINK-4136,1 53260U 22086U   23157.03989918 -.00000306  00000-0 -11446-5 0  9991,2 53260  53.2175  37.6362 0001321  93.8829 266.2314 15.08841054 48769,6917.877,95.437,540.656,538.828,0.0
